[{"OBJECT_NAME":"SKYSAT-A","OBJECT_ID":"2013-066C","EPOCH":"2026-03-09T23:11:31.147872","MEAN_MOTION":15.12354605,"ECCENTRICITY":0.00202509,"INCLINATION":97.395,"RA_OF_ASC_NODE":121.5014,"ARG_OF_PERICENTER":299.3966,"MEAN_ANOMALY":60.5243,"EPHEMERIS_TYPE":0,"CLASSIFICATION_TYPE":"U","NORAD_CAT_ID":39418,"ELEMENT_SET_NO":999,"REV_AT_EPOCH":67348,"BSTAR":0.0002547658,"MEAN_MOTION_DOT":4.374e-5,"MEAN_MOTION_DDOT":0},{"OBJECT_NAME":"STARLINK-3750","OBJECT_ID":"2022-041BC","EPOCH":"2026-03-09T08:44:24.358848","MEAN_MOTION":15.08840762,"ECCENTRICITY":0.00015079,"INCLINATION":53.2173,"RA_OF_ASC_NODE":90.5831,"ARG_OF_PERICENTER":92.8927,"MEAN_ANOMALY":267.2238,"EPHEMERIS_TYPE":0,"CLASSIFICATION_TYPE":"U","NORAD_CAT_ID":52311,"ELEMENT_SET_NO":999,"REV_AT_EPOCH":21581,"BSTAR":0.00012041242,"MEAN_MOTION_DOT":1.629e-5,"MEAN_MOTION_DDOT":0}]
